     2.100          NAVIGATION                              RINEX VERSION / TYPE
fic2rin                                 05/17/2013 00:24:24 PGM / RUN BY / DATE
                                                            END OF HEADER
 7 13  5 16  4  0  0.0  .214256811887D-03  .420641299570D-11  .000000000000D+00
     .290000000000D+02  .524375000000D+02  .413910098160D-08  .172472484212D+01
     .276416540146D-05  .633449363522D-02  .529177486897D-05  .515369444656D+04
     .360000000000D+06 -.689178705215D-07  .194586049866D+01  .894069671631D-07
     .975242777565D+00  .285062500000D+03 -.293694597097D+01 -.803604901941D-08
     .975040614355D-10  .100000000000D+01  .174000000000D+04  .000000000000D+00
     .240000000000D+01  .000000000000D+00 -.107102096081D-07  .290000000000D+02
     .352806000000D+06  .400000000000D+01
 9 13  5 16  4  0  0.0  .241158995777D-03  .261479726760D-11  .000000000000D+00
     .176000000000D+03  .607187500000D+02  .378194324740D-08  .233385235032D+01
     .305287539959D-05  .174011887284D-01  .503472983837D-05  .515279082680D+04
     .360000000000D+06  .244006514549D-06  .192255607029D+01  .223517417908D-07
     .983871770597D+00  .289750000000D+03  .165937600333D+01 -.761460289306D-08
     .140362989539D-09  .100000000000D+01  .174000000000D+04  .000000000000D+00
     .485000000000D+01  .000000000000D+00 -.558793544769D-08  .176000000000D+03
     .352806000000D+06  .400000000000D+01
10 13  5 16  4  0  0.0 -.799866393209D-04 -.125055521494D-11  .000000000000D+00
     .280000000000D+02  .306250000000D+01  .516164357460D-08 -.751041112448D+00
     .191852450371D-06  .123838845175D-01  .655464828014D-05  .515363029671D+04
     .360000000000D+06  .782310962677D-07 -.151550019729D+00  .253319740295D-06
     .943910445796D+00  .243031250000D+03  .801059536762D+00 -.845892377670D-08
    -.399659504565D-09  .100000000000D+01  .174000000000D+04  .000000000000D+00
     .240000000000D+01  .000000000000D+00 -.279396772385D-08  .280000000000D+02
     .352806000000D+06  .400000000000D+01
12 13  5 16  4  0  0.0  .134012196213D-03  .204636307899D-11  .000000000000D+00
     .103000000000D+03 -.493437500000D+02  .417374528182D-08  .141686772954D+01
    -.277161598206D-05  .453159050085D-02  .457279384136D-05  .515357149506D+04
     .360000000000D+06 -.111758708954D-07  .300464826460D+01  .782310962677D-07
     .984234692777D+00  .303531250000D+03  .248623060697D+00 -.807355058150D-08
    -.403588239642D-10  .100000000000D+01  .174000000000D+04  .000000000000D+00
     .240000000000D+01  .000000000000D+00 -.121071934700D-07  .103000000000D+03
     .352806000000D+06  .400000000000D+01
14 13  5 16  4  0  0.0  .220889691263D-03 -.113686837722D-12  .000000000000D+00
     .910000000000D+02  .380625000000D+02  .393409244217D-08 -.197582526389D+01
     .197067856789D-05  .686211022548D-02  .933185219765D-05  .515374562263D+04
     .360000000000D+06  .137835741043D-06  .949073197805D+00 -.149011611938D-06
     .974480781573D+00  .208968750000D+03 -.203640547690D+01 -.762960351790D-08
    -.252153360342D-09  .100000000000D+01  .174000000000D+04  .000000000000D+00
     .240000000000D+01  .000000000000D+00 -.884756445885D-08  .910000000000D+02
     .352806000000D+06  .400000000000D+01
15 13  5 16  4  0  0.0 -.119298696518D-03 -.147792889038D-11  .000000000000D+00
     .860000000000D+02  .429375000000D+02  .471269630272D-08 -.250637826293D+01
     .219233334064D-05  .538788374979D-02  .908784568310D-05  .515376045799D+04
     .360000000000D+06 -.186264514923D-07  .849553242023D+00 -.502914190292D-07
     .941177786507D+00  .194968750000D+03  .170933302458D+00 -.809426573009D-08
    -.242152943785D-09  .100000000000D+01  .174000000000D+04  .000000000000D+00
     .240000000000D+01  .000000000000D+00 -.102445483208D-07  .860000000000D+02
     .352806000000D+06  .400000000000D+01
16 13  5 16  4  0  0.0 -.252082012594D-03  .227373675443D-12  .000000000000D+00
     .370000000000D+02 -.493750000000D+02  .409195616068D-08 -.780188804281D+00
    -.259466469288D-05  .716611219104D-02  .425800681114D-05  .515363742828D+04
     .360000000000D+06  .135973095894D-06  .302301588134D+01 -.800937414169D-07
     .984940720449D+00  .303875000000D+03  .921269910133D-01 -.802461997192D-08
     .750031241812D-10  .100000000000D+01  .174000000000D+04  .000000000000D+00
     .240000000000D+01  .000000000000D+00 -.102445483208D-07  .370000000000D+02
     .352806000000D+06  .400000000000D+01
17 13  5 16  4  0  0.0  .190385617316D-04 -.397903932026D-11  .000000000000D+00
     .980000000000D+02 -.509375000000D+02  .443089885044D-08 -.180715424867D+01
    -.261142849922D-05  .831968674902D-02  .928156077862D-05  .515362944221D+04
     .360000000000D+06  .124797224998D-06 -.222372839334D+01  .745058059692D-08
     .965297961403D+00  .200531250000D+03 -.219060380845D+01 -.780496796539D-08
     .211080220910D-09  .100000000000D+01  .174000000000D+04  .000000000000D+00
     .340000000000D+01  .000000000000D+00 -.102445483208D-07  .980000000000D+02
     .352806000000D+06  .400000000000D+01
18 13  5 16  4  0  0.0  .253900419921D-03  .193267624127D-11  .000000000000D+00
     .260000000000D+02  .759375000000D+01  .566809324169D-08 -.312227331647D+00
     .463798642159D-06  .142921007937D-01  .622496008873D-05  .515359547997D+04
     .360000000000D+06 -.521540641785D-07 -.168206072058D+00  .173225998878D-06
     .927679676919D+00  .242312500000D+03 -.210921990703D+01 -.882929634706D-08
    -.312155859687D-09  .100000000000D+01  .174000000000D+04  .000000000000D+00
     .240000000000D+01  .000000000000D+00 -.111758708954D-07  .260000000000D+02
     .352806000000D+06  .400000000000D+01
19 13  5 16  4  0  0.0 -.373264774680D-03 -.306954461848D-11  .000000000000D+00
     .170000000000D+02 -.553437500000D+02  .445661420730D-08 -.250010841109D+01
    -.303424894810D-05  .926904554944D-02  .960007309914D-05  .515370278740D+04
     .360000000000D+06 -.875443220139D-07 -.217175187951D+01 -.195577740669D-06
     .962499562964D+00  .197687500000D+03  .299236924853D+00 -.783246911092D-08
     .206080012631D-09  .100000000000D+01  .174000000000D+04  .000000000000D+00
     .240000000000D+01  .000000000000D+00 -.149011611938D-07  .170000000000D+02
     .352806000000D+06  .400000000000D+01
20 13  5 16  4  0  0.0  .982596538961D-04  .204636307899D-11  .000000000000D+00
     .220000000000D+02  .337500000000D+01  .553808782644D-08  .216092672167D+00
     .191852450371D-06  .541218754370D-02  .634416937828D-05  .515374144745D+04
     .360000000000D+06 -.279396772385D-07 -.221642866326D+00  .279396772385D-07
     .928393184491D+00  .238906250000D+03  .129717359509D+01 -.863714548606D-08
    -.295369446180D-09  .100000000000D+01  .174000000000D+04  .000000000000D+00
     .240000000000D+01  .000000000000D+00 -.791624188423D-08  .220000000000D+02
     .352806000000D+06  .400000000000D+01
21 13  5 16  4  0  0.0 -.297745689750D-03 -.216004991671D-11  .000000000000D+00
     .580000000000D+02  .119375000000D+02  .556201739464D-08  .752286614569D+00
     .933185219765D-06  .203480236232D-01  .840984284878D-05  .515368685722D+04
     .360000000000D+06 -.186264514923D-06 -.121603252930D+01  .143423676491D-06
     .931223357511D+00  .207656250000D+03 -.213742970453D+01 -.877322258279D-08
     .610739725475D-10  .100000000000D+01  .174000000000D+04  .000000000000D+00
     .240000000000D+01  .000000000000D+00 -.111758708954D-07  .580000000000D+02
     .352806000000D+06  .400000000000D+01
23 13  5 16  4  0  0.0  .853911042213D-04 -.363797880709D-11  .000000000000D+00
     .107000000000D+03  .423750000000D+02  .436518182734D-08 -.297673948298D+01
     .212341547012D-05  .851646077354D-02  .903941690922D-05  .515371815681D+04
     .360000000000D+06 -.949949026108D-07  .890557798575D+00 -.298023223877D-07
     .956081899346D+00  .203250000000D+03 -.289710129194D+01 -.786497046473D-08
    -.201436962087D-09  .100000000000D+01  .174000000000D+04  .000000000000D+00
     .240000000000D+01  .000000000000D+00 -.200234353542D-07  .107000000000D+03
     .352806000000D+06  .400000000000D+01
24 13  5 16  4  0  0.0 -.640936195850D-05 -.682121026330D-12  .000000000000D+00
     .770000000000D+02  .667500000000D+02  .449768734673D-08  .237270226114D+01
     .348500907421D-05  .931880786084D-03  .551342964172D-05  .515368554688D+04
     .360000000000D+06  .260770320892D-07  .191751289282D+01 -.558793544769D-08
     .958776265291D+00  .269968750000D+03  .412750736588D+00 -.824462913618D-08
     .231795369493D-09  .100000000000D+01  .174000000000D+04  .000000000000D+00
     .340000000000D+01  .000000000000D+00  .279396772385D-08  .770000000000D+02
     .352806000000D+06  .400000000000D+01
25 13  5 16  4  0  0.0  .981786288321D-04  .420641299570D-11  .000000000000D+00
     .101000000000D+03 -.457500000000D+02  .444375652887D-08  .519728618017D+00
    -.252574682236D-05  .262479519006D-02  .424683094025D-05  .515378218269D+04
     .360000000000D+06 -.242143869400D-07  .296653083539D+01  .409781932831D-07
     .973046978490D+00  .306718750000D+03  .658869446843D+00 -.821819946385D-08
     .785747015231D-11  .100000000000D+01  .174000000000D+04  .000000000000D+00
     .240000000000D+01  .000000000000D+00  .558793544769D-08  .101000000000D+03
     .352806000000D+06  .400000000000D+01
26 13  5 16  4  0  0.0  .141388736665D-04  .153477230924D-10  .000000000000D+00
     .150000000000D+02  .547187500000D+02  .371051170056D-08 -.303072330913D+01
     .280141830444D-05  .212209415622D-01  .917725265026D-05  .515367095757D+04
     .360000000000D+06  .260770320892D-06  .970900844020D+00 -.147148966789D-06
     .979242394131D+00  .208062500000D+03  .123982884924D+01 -.733601986039D-08
    -.168935608275D-09  .100000000000D+01  .174000000000D+04  .000000000000D+00
     .240000000000D+01  .000000000000D+00 -.605359673500D-08  .150000000000D+02
     .352806000000D+06  .400000000000D+01
